[{"OBJECT_NAME":"OPS 5712 (P\/L 153)","OBJECT_ID":"1967-053H","EPOCH":"2026-03-09T22:39:20.284128","MEAN_MOTION":13.96811985,"ECCENTRICITY":0.00092151,"INCLINATION":69.9762,"RA_OF_ASC_NODE":328.0261,"ARG_OF_PERICENTER":309.8134,"MEAN_ANOMALY":50.216,"EPHEMERIS_TYPE":0,"CLASSIFICATION_TYPE":"U","NORAD_CAT_ID":2874,"ELEMENT_SET_NO":999,"REV_AT_EPOCH":99292,"BSTAR":8.3692014e-5,"MEAN_MOTION_DOT":6.3e-7,"MEAN_MOTION_DDOT":0},{"OBJECT_NAME":"THORAD AGENA D DEB","OBJECT_ID":"1970-025AT","EPOCH":"2026-03-09T20:39:54.608544","MEAN_MOTION":13.93595438,"ECCENTRICITY":0.00143827,"INCLINATION":100.0824,"RA_OF_ASC_NODE":182.9599,"ARG_OF_PERICENTER":165.8791,"MEAN_ANOMALY":194.2771,"EPHEMERIS_TYPE":0,"CLASSIFICATION_TYPE":"U","NORAD_CAT_ID":4659,"ELEMENT_SET_NO":999,"REV_AT_EPOCH":79483,"BSTAR":0.001496968,"MEAN_MOTION_DOT":1.916e-5,"MEAN_MOTION_DDOT":0}]
